[{"OBJECT_NAME":"STARLINK-35082","OBJECT_ID":"2025-191P","EPOCH":"2026-03-09T14:49:26.748480","MEAN_MOTION":15.05643938,"ECCENTRICITY":0.0002353,"INCLINATION":97.6018,"RA_OF_ASC_NODE":301.5343,"ARG_OF_PERICENTER":80.709,"MEAN_ANOMALY":279.4403,"EPHEMERIS_TYPE":0,"CLASSIFICATION_TYPE":"U","NORAD_CAT_ID":65392,"ELEMENT_SET_NO":999,"REV_AT_EPOCH":3026,"BSTAR":6.7413e-5,"MEAN_MOTION_DOT":9.12e-6,"MEAN_MOTION_DDOT":0},{"OBJECT_NAME":"COSMOS 2251 DEB","OBJECT_ID":"1993-036AXJ","EPOCH":"2026-03-07T16:14:39.475392","MEAN_MOTION":15.02350149,"ECCENTRICITY":0.00052276,"INCLINATION":74.0329,"RA_OF_ASC_NODE":161.7612,"ARG_OF_PERICENTER":248.7206,"MEAN_ANOMALY":111.3424,"EPHEMERIS_TYPE":0,"CLASSIFICATION_TYPE":"U","NORAD_CAT_ID":36047,"ELEMENT_SET_NO":999,"REV_AT_EPOCH":67212,"BSTAR":0.0041103158,"MEAN_MOTION_DOT":0.00054783,"MEAN_MOTION_DDOT":0}]
